OBJECT_NAME,OBJECT_ID,EPOCH,MEAN_MOTION,ECCENTRICITY,INCLINATION,RA_OF_ASC_NODE,ARG_OF_PERICENTER,MEAN_ANOMALY,EPHEMERIS_TYPE,CLASSIFICATION_TYPE,NORAD_CAT_ID,ELEMENT_SET_NO,REV_AT_EPOCH,BSTAR,MEAN_MOTION_DOT,MEAN_MOTION_DDOT
2026-106A,2026-106A,2026-06-13T21:38:56.482368,15.11159702,.00146668,97.5102,247.0452,172.2888,187.8571,0,U,69097,999,448,.44143007E-3,.7361E-4,0
2026-106B,2026-106B,2026-06-13T21:59:46.593600,15.09653618,.00150869,97.5080,247.0198,168.2206,191.9379,0,U,69098,999,448,.30628352E-3,.4879E-4,0
2026-106C,2026-106C,2026-06-13T21:37:48.107136,15.11202466,.00144446,97.5106,247.0476,172.9933,187.1502,0,U,69099,999,448,.45438804E-3,.7588E-4,0
2026-106D,2026-106D,2026-06-13T21:34:23.788416,15.11266856,.00141506,97.5075,247.0420,175.2584,184.8783,0,U,69100,999,448,.99933817E-4,.162E-4,0
2026-106E,2026-106E,2026-06-13T21:26:51.234720,15.11462836,.00166142,97.5085,247.0493,176.2856,183.8500,0,U,69101,999,448,.48104049E-3,.8102E-4,0
DRAGON CRS-34,2026-107A,2026-06-13T20:02:44.241792,15.49214103,.00049552,51.6333,316.6832,182.4672,177.6293,0,U,69103,999,57076,.16533763E-3,.8738E-4,0
QIANFAN-145,2026-108A,2026-06-13T19:46:02.423424,14.05311278,.00142575,89.0101,22.5972,132.4130,227.8260,0,U,69104,999,386,-.13825206E+1,-.207394E-1,0
QIANFAN-146,2026-108B,2026-06-13T20:48:59.815008,14.10364472,.00186158,89.0108,22.5681,104.6869,255.6381,0,U,69105,999,388,-.10277691E+1,-.169544E-1,0
QIANFAN-147,2026-108C,2026-06-13T20:58:54.168384,14.06641037,.00152219,89.0102,22.5866,116.8314,243.4427,0,U,69106,999,387,-.12706406E+1,-.1960672E-1,0
QIANFAN-148,2026-108D,2026-06-13T20:50:44.799648,14.05274529,.00185736,89.0102,22.5860,134.0513,226.2203,0,U,69107,999,387,-.12658816E+1,-.1910359E-1,0
QIANFAN-149,2026-108E,2026-06-13T20:48:49.842720,14.09076101,.00165234,89.0114,22.5865,122.6981,237.5799,0,U,69108,999,387,.31288761E-4,.68E-6,0
QIANFAN-150,2026-108F,2026-06-13T20:28:08.829408,14.07598512,.00160983,89.0107,22.5843,112.1765,248.1129,0,U,69109,999,387,-.13293021E+1,-.2078177E-1,0
QIANFAN-151,2026-108G,2026-06-13T20:20:16.891872,14.06080708,.00161499,89.0114,22.5830,128.9940,231.2683,0,U,69110,999,387,-.12621252E+1,-.1930369E-1,0
QIANFAN-152,2026-108H,2026-06-13T20:05:05.791776,14.07695038,.001701,89.0106,22.5818,119.1577,241.1311,0,U,69111,999,387,-.12008761E+1,-.1893806E-1,0
QIANFAN-153,2026-108J,2026-06-13T19:58:07.241664,14.06943309,.0016263,89.0102,22.5801,122.6383,237.6371,0,U,69112,999,387,-.1176426E+1,-.1813846E-1,0
QIANFAN-154,2026-108K,2026-06-13T19:48:02.876256,14.08392809,.00200047,89.0112,22.5808,110.5588,249.7744,0,U,69113,999,387,-.13179132E+1,-.2090587E-1,0
QIANFAN-155,2026-108L,2026-06-13T19:55:28.197408,14.07567838,.00193227,89.0103,22.5813,116.5625,243.7541,0,U,69114,999,387,-.13260112E+1,-.2073335E-1,0
QIANFAN-156,2026-108M,2026-06-12T23:08:21.295968,14.09991528,.00213123,89.0116,22.6746,111.6361,248.7096,0,U,69115,999,375,-.11884921E+1,-.1951408E-1,0
QIANFAN-157,2026-108N,2026-06-13T20:27:33.344064,14.10677837,.00218947,89.0107,22.5657,117.5197,242.8216,0,U,69116,999,388,-.11421385E+1,-.1902602E-1,0
QIANFAN-158,2026-108P,2026-06-13T20:58:49.872576,14.09686939,.00189213,89.0110,22.5691,110.1512,250.1710,0,U,69117,999,388,-.11238747E+1,-.1841769E-1,0
QIANFAN-159,2026-108Q,2026-06-13T20:48:51.450624,14.10847637,.00167144,89.0104,22.5675,100.0534,260.2538,0,U,69118,999,388,-.12085163E+1,-.2009509E-1,0
QIANFAN-160,2026-108R,2026-06-13T20:43:45.402816,14.09596494,.0017565,89.0109,22.5680,106.3316,253.9802,0,U,69119,999,388,-.11751477E+1,-.1916835E-1,0
QIANFAN-161,2026-108S,2026-06-13T22:13:45.701760,14.16181151,.00155396,89.0115,22.5587,122.9513,237.3171,0,U,69120,999,389,.34764929E-4,.83E-6,0
QIANFAN-162,2026-108T,2026-06-13T20:25:26.339520,14.11632797,.00214844,89.0108,22.5660,121.5380,238.7908,0,U,69121,999,388,-.1053318E+1,-.1773185E-1,0
SMILE,2026-109A,2026-05-24T15:40:35.120928,14.57062785,.00091232,70.0007,229.2745,259.5159,100.4951,0,U,69123,999,80,-.42378883E-3,-.1976E-4,0
STARLINK-37726,2026-110A,2026-06-13T22:32:09.106656,15.49211309,.00013526,97.2837,1.1274,85.0024,275.1381,0,U,69124,999,509,.87719205E-3,.47946E-3,0
STARLINK-37722,2026-110B,2026-06-13T19:21:12.720672,15.49203423,.00014286,97.2831,1.1547,82.7645,277.3768,0,U,69125,999,508,.79664983E-3,.43499E-3,0
STARLINK-37715,2026-110C,2026-06-13T22:00:01.999584,15.33371675,.00019346,97.2843,1.3254,94.4666,298.3581,0,U,69126,999,512,.30169142E-2,.98374E-3,0
